STARLINK-37005          
1 68107U 26044G   26086.18133768  .00110843  00000+0  73324-3 0  9995
2 68107  97.2836  47.1848 0001525 128.3636 231.7767 15.75226207  4232
STARLINK-37017          
1 68108U 26044H   26086.17815875  .00024998  00000+0  16785-3 0  9994
2 68108  97.2834  47.1893 0001702 132.6011 227.5398 15.75206078  4230
STARLINK-36833          
1 68109U 26044J   26086.17674601  .00070330  00000+0  46912-3 0  9991
2 68109  97.2835  47.1906 0001575 106.1619 253.9820 15.75160106  4239
STARLINK-36830          
1 68110U 26044K   26086.17745521  .00100947  00000+0  66915-3 0  9996
2 68110  97.2836  47.1901 0001559 122.7187 237.4229 15.75208302  4234
STARLINK-36791          
1 68111U 26044L   26086.17533806  .00111197  00000+0  73562-3 0  9993
2 68111  97.2838  47.1931 0001304 115.8545 244.2855 15.75224528  4238
STARLINK-36893          
1 68112U 26044M   26086.17428068  .00161806  00000+0  10629-2 0  9993
2 68112  97.2838  47.1931 0001414 108.7647 251.3772 15.75242317  4238
STARLINK-36937          
1 68113U 26044N   26086.17322375  .00127352  00000+0  84104-3 0  9996
2 68113  97.2834  47.1950 0001986  66.4921 293.6553 15.75216089  4238
STARLINK-36229          
1 68114U 26044P   26086.17357340  .00091331  00000+0  60583-3 0  9999
2 68114  97.2840  47.1933 0001433 145.2366 214.8993 15.75221980  4232
STARLINK-36392          
1 68115U 26044Q   26086.17216195  .00113302  00000+0  74927-3 0  9992
2 68115  97.2838  47.1956 0001645 132.5675 227.5729 15.75226313  4235
STARLINK-36805          
1 68116U 26044R   26086.17181022  .00076261  00000+0  50714-3 0  9993
2 68116  97.2836  47.1970 0001690 131.0863 229.0549 15.75210365  4230
STARLINK-36844          
1 68117U 26044S   26086.17039681  .00140043  00000+0  92226-3 0  9991
2 68117  97.2838  47.1982 0001258 120.3255 239.8135 15.75245318  4238
STARLINK-36789          
1 68118U 26044T   26086.17004657  .00095900  00000+0  63606-3 0  9998
2 68118  97.2839  47.1984 0001433 122.6083 237.5321 15.75210448  4239
