CCSDS_OMM_VERS = 2.0
CREATION_DATE  = 
ORIGINATOR     = 

OBJECT_NAME    = STARLINK-37005
OBJECT_ID      = 2026-044G
CENTER_NAME    = EARTH
REF_FRAME      = TEME
TIME_SYSTEM    = UTC
MEAN_ELEMENT_THEORY = SGP/SGP4

EPOCH          = 2026-03-27T04:21:07.575552
MEAN_MOTION    = 15.75226207
ECCENTRICITY   = .00015258
INCLINATION    = 97.2836
RA_OF_ASC_NODE = 47.1848
ARG_OF_PERICENTER = 128.3636
MEAN_ANOMALY   = 231.7767

EPHEMERIS_TYPE = 0
CLASSIFICATION_TYPE = U
NORAD_CAT_ID   = 68107
ELEMENT_SET_NO = 999
REV_AT_EPOCH   = 423
BSTAR          = .73324472E-3
MEAN_MOTION_DOT = .110843E-2
MEAN_MOTION_DDOT = 0

CCSDS_OMM_VERS = 2.0
CREATION_DATE  = 
ORIGINATOR     = 

OBJECT_NAME    = STARLINK-37017
OBJECT_ID      = 2026-044H
CENTER_NAME    = EARTH
REF_FRAME      = TEME
TIME_SYSTEM    = UTC
MEAN_ELEMENT_THEORY = SGP/SGP4

EPOCH          = 2026-03-27T04:16:32.916000
MEAN_MOTION    = 15.75206078
ECCENTRICITY   = .00017028
INCLINATION    = 97.2834
RA_OF_ASC_NODE = 47.1893
ARG_OF_PERICENTER = 132.6011
MEAN_ANOMALY   = 227.5398

EPHEMERIS_TYPE = 0
CLASSIFICATION_TYPE = U
NORAD_CAT_ID   = 68108
ELEMENT_SET_NO = 999
REV_AT_EPOCH   = 423
BSTAR          = .16785142E-3
MEAN_MOTION_DOT = .24998E-3
MEAN_MOTION_DDOT = 0

CCSDS_OMM_VERS = 2.0
CREATION_DATE  = 
ORIGINATOR     = 

OBJECT_NAME    = STARLINK-36833
OBJECT_ID      = 2026-044J
CENTER_NAME    = EARTH
REF_FRAME      = TEME
TIME_SYSTEM    = UTC
MEAN_ELEMENT_THEORY = SGP/SGP4

EPOCH          = 2026-03-27T04:14:30.855264
MEAN_MOTION    = 15.75160106
ECCENTRICITY   = .00015756
INCLINATION    = 97.2835
RA_OF_ASC_NODE = 47.1906
ARG_OF_PERICENTER = 106.1619
MEAN_ANOMALY   = 253.9820

EPHEMERIS_TYPE = 0
CLASSIFICATION_TYPE = U
NORAD_CAT_ID   = 68109
ELEMENT_SET_NO = 999
REV_AT_EPOCH   = 423
BSTAR          = .46911784E-3
MEAN_MOTION_DOT = .7033E-3
MEAN_MOTION_DDOT = 0

CCSDS_OMM_VERS = 2.0
CREATION_DATE  = 
ORIGINATOR     = 

OBJECT_NAME    = STARLINK-36830
OBJECT_ID      = 2026-044K
CENTER_NAME    = EARTH
REF_FRAME      = TEME
TIME_SYSTEM    = UTC
MEAN_ELEMENT_THEORY = SGP/SGP4

EPOCH          = 2026-03-27T04:15:32.130144
MEAN_MOTION    = 15.75208302
ECCENTRICITY   = .00015594
INCLINATION    = 97.2836
RA_OF_ASC_NODE = 47.1901
ARG_OF_PERICENTER = 122.7187
MEAN_ANOMALY   = 237.4229

EPHEMERIS_TYPE = 0
CLASSIFICATION_TYPE = U
NORAD_CAT_ID   = 68110
ELEMENT_SET_NO = 999
REV_AT_EPOCH   = 423
BSTAR          = .66915248E-3
MEAN_MOTION_DOT = .100947E-2
MEAN_MOTION_DDOT = 0

CCSDS_OMM_VERS = 2.0
CREATION_DATE  = 
ORIGINATOR     = 

OBJECT_NAME    = STARLINK-36791
OBJECT_ID      = 2026-044L
CENTER_NAME    = EARTH
REF_FRAME      = TEME
TIME_SYSTEM    = UTC
MEAN_ELEMENT_THEORY = SGP/SGP4

EPOCH          = 2026-03-27T04:12:29.208384
MEAN_MOTION    = 15.75224528
ECCENTRICITY   = .00013047
INCLINATION    = 97.2838
RA_OF_ASC_NODE = 47.1931
ARG_OF_PERICENTER = 115.8545
MEAN_ANOMALY   = 244.2855

EPHEMERIS_TYPE = 0
CLASSIFICATION_TYPE = U
NORAD_CAT_ID   = 68111
ELEMENT_SET_NO = 999
REV_AT_EPOCH   = 423
BSTAR          = .73561541E-3
MEAN_MOTION_DOT = .111197E-2
MEAN_MOTION_DDOT = 0

CCSDS_OMM_VERS = 2.0
CREATION_DATE  = 
ORIGINATOR     = 

OBJECT_NAME    = STARLINK-36893
OBJECT_ID      = 2026-044M
CENTER_NAME    = EARTH
REF_FRAME      = TEME
TIME_SYSTEM    = UTC
MEAN_ELEMENT_THEORY = SGP/SGP4

EPOCH          = 2026-03-27T04:10:57.850752
MEAN_MOTION    = 15.75242317
ECCENTRICITY   = .00014148
INCLINATION    = 97.2838
RA_OF_ASC_NODE = 47.1931
ARG_OF_PERICENTER = 108.7647
MEAN_ANOMALY   = 251.3772

EPHEMERIS_TYPE = 0
CLASSIFICATION_TYPE = U
NORAD_CAT_ID   = 68112
ELEMENT_SET_NO = 999
REV_AT_EPOCH   = 423
BSTAR          = .10628548E-2
MEAN_MOTION_DOT = .161806E-2
MEAN_MOTION_DDOT = 0

CCSDS_OMM_VERS = 2.0
CREATION_DATE  = 
ORIGINATOR     = 

OBJECT_NAME    = STARLINK-36937
OBJECT_ID      = 2026-044N
CENTER_NAME    = EARTH
REF_FRAME      = TEME
TIME_SYSTEM    = UTC
MEAN_ELEMENT_THEORY = SGP/SGP4

EPOCH          = 2026-03-27T04:09:26.532000
MEAN_MOTION    = 15.75216089
ECCENTRICITY   = .00019865
INCLINATION    = 97.2834
RA_OF_ASC_NODE = 47.1950
ARG_OF_PERICENTER = 66.4921
MEAN_ANOMALY   = 293.6553

EPHEMERIS_TYPE = 0
CLASSIFICATION_TYPE = U
NORAD_CAT_ID   = 68113
ELEMENT_SET_NO = 999
REV_AT_EPOCH   = 423
BSTAR          = .84104181E-3
MEAN_MOTION_DOT = .127352E-2
MEAN_MOTION_DDOT = 0

CCSDS_OMM_VERS = 2.0
CREATION_DATE  = 
ORIGINATOR     = 

OBJECT_NAME    = STARLINK-36229
OBJECT_ID      = 2026-044P
CENTER_NAME    = EARTH
REF_FRAME      = TEME
TIME_SYSTEM    = UTC
MEAN_ELEMENT_THEORY = SGP/SGP4

EPOCH          = 2026-03-27T04:09:56.741760
MEAN_MOTION    = 15.75221980
ECCENTRICITY   = .00014335
INCLINATION    = 97.2840
RA_OF_ASC_NODE = 47.1933
ARG_OF_PERICENTER = 145.2366
MEAN_ANOMALY   = 214.8993

EPHEMERIS_TYPE = 0
CLASSIFICATION_TYPE = U
NORAD_CAT_ID   = 68114
ELEMENT_SET_NO = 999
REV_AT_EPOCH   = 423
BSTAR          = .60582624E-3
MEAN_MOTION_DOT = .91331E-3
MEAN_MOTION_DDOT = 0

CCSDS_OMM_VERS = 2.0
CREATION_DATE  = 
ORIGINATOR     = 

OBJECT_NAME    = STARLINK-36392
OBJECT_ID      = 2026-044Q
CENTER_NAME    = EARTH
REF_FRAME      = TEME
TIME_SYSTEM    = UTC
MEAN_ELEMENT_THEORY = SGP/SGP4

EPOCH          = 2026-03-27T04:07:54.792480
MEAN_MOTION    = 15.75226313
ECCENTRICITY   = .00016455
INCLINATION    = 97.2838
RA_OF_ASC_NODE = 47.1956
ARG_OF_PERICENTER = 132.5675
MEAN_ANOMALY   = 227.5729

EPHEMERIS_TYPE = 0
CLASSIFICATION_TYPE = U
NORAD_CAT_ID   = 68115
ELEMENT_SET_NO = 999
REV_AT_EPOCH   = 423
BSTAR          = .74926718E-3
MEAN_MOTION_DOT = .113302E-2
MEAN_MOTION_DDOT = 0

CCSDS_OMM_VERS = 2.0
CREATION_DATE  = 
ORIGINATOR     = 

OBJECT_NAME    = STARLINK-36805
OBJECT_ID      = 2026-044R
CENTER_NAME    = EARTH
REF_FRAME      = TEME
TIME_SYSTEM    = UTC
MEAN_ELEMENT_THEORY = SGP/SGP4

EPOCH          = 2026-03-27T04:07:24.403008
MEAN_MOTION    = 15.75210365
ECCENTRICITY   = .00016905
INCLINATION    = 97.2836
RA_OF_ASC_NODE = 47.1970
ARG_OF_PERICENTER = 131.0863
MEAN_ANOMALY   = 229.0549

EPHEMERIS_TYPE = 0
CLASSIFICATION_TYPE = U
NORAD_CAT_ID   = 68116
ELEMENT_SET_NO = 999
REV_AT_EPOCH   = 423
BSTAR          = .50714381E-3
MEAN_MOTION_DOT = .76261E-3
MEAN_MOTION_DDOT = 0

CCSDS_OMM_VERS = 2.0
CREATION_DATE  = 
ORIGINATOR     = 

OBJECT_NAME    = STARLINK-36844
OBJECT_ID      = 2026-044S
CENTER_NAME    = EARTH
REF_FRAME      = TEME
TIME_SYSTEM    = UTC
MEAN_ELEMENT_THEORY = SGP/SGP4

EPOCH          = 2026-03-27T04:05:22.284384
MEAN_MOTION    = 15.75245318
ECCENTRICITY   = .00012586
INCLINATION    = 97.2838
RA_OF_ASC_NODE = 47.1982
ARG_OF_PERICENTER = 120.3255
MEAN_ANOMALY   = 239.8135

EPHEMERIS_TYPE = 0
CLASSIFICATION_TYPE = U
NORAD_CAT_ID   = 68117
ELEMENT_SET_NO = 999
REV_AT_EPOCH   = 423
BSTAR          = .92225928E-3
MEAN_MOTION_DOT = .140043E-2
MEAN_MOTION_DDOT = 0

CCSDS_OMM_VERS = 2.0
CREATION_DATE  = 
ORIGINATOR     = 

OBJECT_NAME    = STARLINK-36789
OBJECT_ID      = 2026-044T
CENTER_NAME    = EARTH
REF_FRAME      = TEME
TIME_SYSTEM    = UTC
MEAN_ELEMENT_THEORY = SGP/SGP4

EPOCH          = 2026-03-27T04:04:52.023648
MEAN_MOTION    = 15.75210448
ECCENTRICITY   = .00014333
INCLINATION    = 97.2839
RA_OF_ASC_NODE = 47.1984
ARG_OF_PERICENTER = 122.6083
MEAN_ANOMALY   = 237.5321

EPHEMERIS_TYPE = 0
CLASSIFICATION_TYPE = U
NORAD_CAT_ID   = 68118
ELEMENT_SET_NO = 999
REV_AT_EPOCH   = 423
BSTAR          = .63606104E-3
MEAN_MOTION_DOT = .959E-3
MEAN_MOTION_DDOT = 0

